NORAD_CAT_ID,OBJECT_NAME,OBJECT_TYPE,EPOCH,MEAN_MOTION,ECCENTRICITY,INCLINATION,RA_OF_ASC_NODE,ARG_OF_PERICENTER,MEAN_ANOMALY,BSTAR,MEAN_MOTION_DOT,MEAN_MOTION_DDOT,TLE_LINE0,TLE_LINE1,TLE_LINE2,SEMIMAJOR_AXIS,PERIOD,APOGEE,PERIGEE,DECAYED
40536,KOMPSAT 3A,PAYLOAD,2021-06-04 10:37:17,15.12293338,0.0003713,97.5348,97.3477,55.3726,84.1059,4.8256999999999996e-05,7.71e-06,0.0,0 KOMPSAT 3A,1 40536U 15014A   21155.44256881  .00000771  00000-0  48257-4 0  9996,2 40536  97.5348  97.3477 0003713  55.3726  84.1059 15.12293338341917,6907.345,95.22,531.775,526.645,0.0
40536,KOMPSAT 3A,PAYLOAD,2021-06-04 14:59:43,15.12293152,0.000371,97.5349,97.5276,55.0201,355.9928,4.5347e-05,7.200000000000001e-06,0.0,0 KOMPSAT 3A,1 40536U 15014A   21155.62480958  .00000720  00000-0  45347-4 0  9991,2 40536  97.5349  97.5276 0003710  55.0201 355.9928 15.12293152341940,6907.346,95.22,531.773,526.648,0.0
40536,KOMPSAT 3A,PAYLOAD,2021-06-04 19:54:26,15.12293361,0.00037060000000000017,97.5349,97.7297,54.3113,30.2421,4.446e-05,7.05e-06,0.0,0 KOMPSAT 3A,1 40536U 15014A   21155.82947407  .00000705  00000-0  44460-4 0  9998,2 40536  97.5349  97.7297 0003706  54.3113  30.2421 15.12293361341970,6907.345,95.22,531.77,526.65,0.0
40536,KOMPSAT 3A,PAYLOAD,2021-06-05 02:25:51,15.12293274,0.00037230000000000016,97.5349,97.9979,53.667,69.7802,4.0993999999999994e-05,6.45e-06,0.0,0 KOMPSAT 3A,1 40536U 15014A   21156.10128951  .00000645  00000-0  40994-4 0  9996,2 40536  97.5349  97.9979 0003723  53.6670  69.7802 15.12293274342017,6907.345,95.22,531.7819999999998,526.639,0.0
40536,KOMPSAT 3A,PAYLOAD,2021-06-05 10:20:09,15.12293484,0.000371,97.5348,98.323,52.751999999999995,62.7565,3.9223e-05,6.14e-06,0.0,0 KOMPSAT 3A,1 40536U 15014A   21156.43066359  .00000614  00000-0  39223-4 0  9994,2 40536  97.5348  98.3230 0003710  52.7520  62.7565 15.12293484342068,6907.345,95.22,531.7719999999998,526.6469999999998,0.0
40536,KOMPSAT 3A,PAYLOAD,2021-06-05 13:30:30,15.12293069,0.00036960000000000004,97.5348,98.4533,52.446999999999996,62.272,3.565e-05,5.53e-06,0.0,0 KOMPSAT 3A,1 40536U 15014A   21156.56285244  .00000553  00000-0  35650-4 0  9996,2 40536  97.5348  98.4533 0003696  52.4470  62.2720 15.12293069342088,6907.346,95.22,531.764,526.658,0.0
40536,KOMPSAT 3A,PAYLOAD,2021-06-05 18:01:38,15.12293079,0.0003686,97.5347,98.6391,51.8582,7.2879999999999985,3.3709e-05,5.19e-06,0.0,0 KOMPSAT 3A,1 40536U 15014A   21156.75113832  .00000519  00000-0  33709-4 0  9995,2 40536  97.5347  98.6391 0003686  51.8582   7.2880 15.12293079342118,6907.346,95.22,531.757,526.665,0.0
40536,KOMPSAT 3A,PAYLOAD,2021-06-05 21:18:54,15.12293005,0.00037030000000000016,97.5347,98.7744,51.4195,33.080999999999996,3.1877e-05,4.87e-06,0.0,0 KOMPSAT 3A,1 40536U 15014A   21156.88813177  .00000487  00000-0  31877-4 0  9996,2 40536  97.5347  98.7744 0003703  51.4195  33.0810 15.12293005342138,6907.346,95.22,531.769,526.653,0.0
40536,KOMPSAT 3A,PAYLOAD,2021-06-06 03:50:30,15.12292952,0.0003682,97.5347,99.0426,50.919,73.1689,2.9148000000000013e-05,4.4e-06,0.0,0 KOMPSAT 3A,1 40536U 15014A   21157.16007446  .00000440  00000-0  29148-4 0  9999,2 40536  97.5347  99.0426 0003682  50.9190  73.1689 15.12292952342177,6907.346,95.22,531.754,526.668,0.0
40536,KOMPSAT 3A,PAYLOAD,2021-06-06 11:49:38,15.12292701,0.000364,97.5346,99.3709,50.2315,84.1956,2.5336e-05,3.74e-06,0.0,0 KOMPSAT 3A,1 40536U 15014A   21157.49280843  .00000374  00000-0  25336-4 0  9990,2 40536  97.5346  99.3709 0003640  50.2315  84.1956 15.12292701342226,6907.347,95.22,531.726,526.698,0.0
40536,KOMPSAT 3A,PAYLOAD,2021-06-06 19:24:16,15.12292282,0.000359,97.5345,99.6826,49.9428,2.2129,2.0123e-05,2.84e-06,0.0,0 KOMPSAT 3A,1 40536U 15014A   21157.80852093  .00000284  00000-0  20123-4 0  9996,2 40536  97.5345  99.6826 0003590  49.9428   2.2129 15.12292282342274,6907.348000000001,95.22,531.693,526.7330000000002,0.0
40536,KOMPSAT 3A,PAYLOAD,2021-06-06 22:43:39,15.12292298,0.00035810000000000003,97.5344,99.8192,49.7671,35.7137,1.9492e-05,2.73e-06,0.0,0 KOMPSAT 3A,1 40536U 15014A   21157.94697928  .00000273  00000-0  19492-4 0  9990,2 40536  97.5344  99.8192 0003581  49.7671  35.7137 15.12292298342298,6907.348000000001,95.22,531.687,526.74,0.0
40536,KOMPSAT 3A,PAYLOAD,2021-06-07 03:22:16,15.12292194,0.0003539,97.5344,100.0101,49.8324,8.367,1.7619000000000002e-05,2.41e-06,0.0,0 KOMPSAT 3A,1 40536U 15014A   21158.14046508  .00000241  00000-0  17619-4 0  9999,2 40536  97.5344 100.0101 0003539  49.8324   8.3670 15.12292194342329,6907.348000000001,95.22,531.658,526.769,0.0
40536,KOMPSAT 3A,PAYLOAD,2021-06-07 10:07:03,15.12291991,0.00035469999999999995,97.5344,100.2867,48.4209,99.2342,1.4887999999999999e-05,1.93e-06,0.0,0 KOMPSAT 3A,1 40536U 15014A   21158.42157372  .00000193  00000-0  14888-4 0  9993,2 40536  97.5344 100.2867 0003547  48.4209  99.2342 15.12291991342369,6907.349,95.22,531.664,526.764,0.0
40536,KOMPSAT 3A,PAYLOAD,2021-06-07 14:59:35,15.12291735,0.00035180000000000004,97.5344,100.4871,48.3231,124.589,1.2427e-05,1.51e-06,0.0,0 KOMPSAT 3A,1 40536U 15014A   21158.62471615  .00000151  00000-0  12427-4 0  9995,2 40536  97.5344 100.4871 0003518  48.3231 124.5890 15.12291735342397,6907.35,95.22,531.645,526.785,0.0
40536,KOMPSAT 3A,PAYLOAD,2021-06-07 19:14:42,15.12291745,0.0003516,97.5344,100.6618,47.8777,8.9613,1.1255999999999999e-05,1.31e-06,0.0,0 KOMPSAT 3A,1 40536U 15014A   21158.80188222  .00000131  00000-0  11256-4 0  9991,2 40536  97.5344 100.6618 0003516  47.8777   8.9613 15.12291745342428,6907.35,95.22,531.643,526.786,0.0
40536,KOMPSAT 3A,PAYLOAD,2021-06-07 22:33:05,15.12291797,0.0003519,97.5343,100.7978,47.3438,39.0198,1.1186e-05,1.29e-06,0.0,0 KOMPSAT 3A,1 40536U 15014A   21158.93964206  .00000129  00000-0  11186-4 0  9998,2 40536  97.5343 100.7978 0003519  47.3438  39.0198 15.12291797342441,6907.35,95.22,531.645,526.784,0.0
40536,KOMPSAT 3A,PAYLOAD,2021-06-08 03:11:14,15.12291842,0.0003525,97.5342,100.9884,47.0387,10.2814,1.0784e-05,1.22e-06,0.0,0 KOMPSAT 3A,1 40536U 15014A   21159.13280390  .00000122  00000-0  10784-4 0  9992,2 40536  97.5342 100.9884 0003525  47.0387  10.2814 15.12291842342475,6907.35,95.22,531.649,526.78,0.0
40536,KOMPSAT 3A,PAYLOAD,2021-06-08 09:56:23,15.12292047,0.00035099999999999997,97.5342,101.2662,46.5532,101.5485,1.1283e-05,1.31e-06,0.0,0 KOMPSAT 3A,1 40536U 15014A   21159.41415564  .00000131  00000-0  11283-4 0  9991,2 40536  97.5342 101.2662 0003510  46.5532 101.5485 15.12292047342514,6907.349,95.22,531.638,526.789,0.0
40536,KOMPSAT 3A,PAYLOAD,2021-06-08 14:48:46,15.12292184,0.00035,97.5344,101.4667,46.3519,126.5253,1.1879000000000001e-05,1.41e-06,0.0,0 KOMPSAT 3A,1 40536U 15014A   21159.61720914  .00000141  00000-0  11879-4 0  9993,2 40536  97.5344 101.4667 0003500  46.3519 126.5253 15.12292184342540,6907.349,95.22,531.631,526.7959999999998,0.0
40536,KOMPSAT 3A,PAYLOAD,2021-06-08 19:04:04,15.122922599999999,0.0003503,97.5345,101.6416,45.6969,11.7672,1.1497e-05,1.35e-06,0.0,0 KOMPSAT 3A,1 40536U 15014A   21159.79449650  .00000135  00000-0  11497-4 0  9996,2 40536  97.5345 101.6416 0003503  45.6969  11.7672 15.12292260342577,6907.348000000001,95.22,531.633,526.794,0.0
40536,KOMPSAT 3A,PAYLOAD,2021-06-08 23:53:12,15.12292426,0.00035,97.5345,101.8399,45.08,24.8086,1.1979000000000005e-05,1.43e-06,0.0,0 KOMPSAT 3A,1 40536U 15014A   21159.99527988  .00000143  00000-0  11979-4 0  9993,2 40536  97.5345 101.8399 0003500  45.0800  24.8086 15.12292426342606,6907.348000000001,95.22,531.63,526.795,0.0
40536,KOMPSAT 3A,PAYLOAD,2021-06-09 03:00:11,15.12292683,0.0003458,97.5344,101.9679,44.9507,11.4265,1.2992e-05,1.61e-06,0.0,0 KOMPSAT 3A,1 40536U 15014A   21160.12512941  .00000161  00000-0  12992-4 0  9999,2 40536  97.5344 101.9679 0003458  44.9507  11.4265 15.12292683342629,6907.347,95.22,531.601,526.823,0.0
40536,KOMPSAT 3A,PAYLOAD,2021-06-09 09:45:40,15.12293068,0.0003457,97.5344,102.2459,44.3516,104.0788,1.4378e-05,1.85e-06,0.0,0 KOMPSAT 3A,1 40536U 15014A   21160.40671453  .00000185  00000-0  14378-4 0  9990,2 40536  97.5344 102.2459 0003457  44.3516 104.0788 15.12293068342663,6907.346,95.22,531.599,526.823,0.0
40536,KOMPSAT 3A,PAYLOAD,2021-06-09 14:37:54,15.12293684,0.00034530000000000004,97.5346,102.4462,44.2492,128.3459,1.8157999999999998e-05,2.5e-06,0.0,0 KOMPSAT 3A,1 40536U 15014A   21160.60965508  .00000250  00000-0  18158-4 0  9992,2 40536  97.5346 102.4462 0003453  44.2492 128.3459 15.12293684342690,6907.344,95.22,531.594,526.8240000000002,0.0
40536,KOMPSAT 3A,PAYLOAD,2021-06-09 19:00:11,15.1229428,0.0003421,97.5345,102.6259,42.7546,40.8656,2.1124e-05,3.01e-06,0.0,0 KOMPSAT 3A,1 40536U 15014A   21160.79180101  .00000301  00000-0  21124-4 0  9994,2 40536  97.5345 102.6259 0003421  42.7546  40.8656 15.12294280342727,6907.342,95.22,531.57,526.844,0.0
40536,KOMPSAT 3A,PAYLOAD,2021-06-10 02:49:17,15.12295116,0.0003318,97.5345,102.9476,42.5836,13.4391,2.5043e-05,3.69e-06,0.0,0 KOMPSAT 3A,1 40536U 15014A   21161.11756054  .00000369  00000-0  25043-4 0  9995,2 40536  97.5345 102.9476 0003318  42.5836  13.4391 15.12295116342772,6907.34,95.22,531.496,526.913,0.0
40536,KOMPSAT 3A,PAYLOAD,2021-06-10 09:35:41,15.12295873,0.0003325,97.5345,103.2263,42.4307,109.1343,2.822e-05,4.24e-06,0.0,0 KOMPSAT 3A,1 40536U 15014A   21161.39978613  .00000424  00000-0  28220-4 0  9994,2 40536  97.5345 103.2263 0003325  42.4307 109.1343 15.12295873342815,6907.3369999999995,95.219,531.499,526.906,0.0
40536,KOMPSAT 3A,PAYLOAD,2021-06-10 14:28:19,15.12296563,0.00033360000000000003,97.5347,103.4271,42.1362,135.0869,3.2363e-05,4.96e-06,0.0,0 KOMPSAT 3A,1 40536U 15014A   21161.60300097  .00000496  00000-0  32363-4 0  9995,2 40536  97.5347 103.4271 0003336  42.1362 135.0869 15.12296563342849,6907.335,95.219,531.504,526.896,0.0
